[
    {
        "Altitude(m)": 570587.9541232958,
        "Argument of Periapsis(deg)": 0.013245982221427002,
        "Eccentricity": 0.0,
        "Inclination(deg)": 53.0,
        "Latitude(deg)": -49.935731967956514,
        "Longitude(deg)": 126.4371495173803,
        "Mean Anomaly(deg)": -107.08951426484481,
        "RAAN(deg)": 344.9802867370561,
        "Satellite Name": "Starlink Shell 1 1532",
        "Satellite Number": 1532,
        "Semi-Major Axis(m)": 6931778.249405717,
        "Time(s)": 380
    },
    {
        "Altitude(m)": 570676.5698445811,
        "Argument of Periapsis(deg)": 0.013594560700938237,
        "Eccentricity": 0.0,
        "Inclination(deg)": 53.0,
        "Latitude(deg)": -50.15879318042412,
        "Longitude(deg)": 127.30240080787323,
        "Mean Anomaly(deg)": -106.4626830612881,
        "RAAN(deg)": 344.97976796697856,
        "Satellite Name": "Starlink Shell 1 1532",
        "Satellite Number": 1532,
        "Semi-Major Axis(m)": 6931778.249405717,
        "Time(s)": 390
    },
    {
        "Altitude(m)": 570762.1704558254,
        "Argument of Periapsis(deg)": 0.013943139180449475,
        "Eccentricity": 0.0,
        "Inclination(deg)": 53.0,
        "Latitude(deg)": -50.37470601754167,
        "Longitude(deg)": 128.17597440759616,
        "Mean Anomaly(deg)": -105.83585185773136,
        "RAAN(deg)": 344.9792491969011,
        "Satellite Name": "Starlink Shell 1 1532",
        "Satellite Number": 1532,
        "Semi-Major Axis(m)": 6931778.249405717,
        "Time(s)": 400
    },
    {
        "Altitude(m)": 570844.7218955106,
        "Argument of Periapsis(deg)": 0.014291717659960712,
        "Eccentricity": 0.0,
        "Inclination(deg)": 53.0,
        "Latitude(deg)": -50.583351614217854,
        "Longitude(deg)": 129.05773315773507,
        "Mean Anomaly(deg)": -105.20902065417461,
        "RAAN(deg)": 344.97873042682363,
        "Satellite Name": "Starlink Shell 1 1532",
        "Satellite Number": 1532,
        "Semi-Major Axis(m)": 6931778.249405717,
        "Time(s)": 410
    },
    {
        "Altitude(m)": 570924.1913044861,
        "Argument of Periapsis(deg)": 0.014640296139471948,
        "Eccentricity": 0.0,
        "Inclination(deg)": 53.0,
        "Latitude(deg)": -50.78461264429574,
        "Longitude(deg)": 129.94752384698498,
        "Mean Anomaly(deg)": -104.58218945061797,
        "RAAN(deg)": 344.97821165674617,
        "Satellite Name": "Starlink Shell 1 1532",
        "Satellite Number": 1532,
        "Semi-Major Axis(m)": 6931778.249405717,
        "Time(s)": 420
    },
    {
        "Altitude(m)": 571000.5470402542,
        "Argument of Periapsis(deg)": 0.014988874618983185,
        "Eccentricity": 0.0,
        "Inclination(deg)": 53.0,
        "Latitude(deg)": -50.97837357983916,
        "Longitude(deg)": 130.84517746460708,
        "Mean Anomaly(deg)": -103.95535824706127,
        "RAAN(deg)": 344.97769288666865,
        "Satellite Name": "Starlink Shell 1 1532",
        "Satellite Number": 1532,
        "Semi-Major Axis(m)": 6931778.249405717,
        "Time(s)": 430
    },
    {
        "Altitude(m)": 571073.7586907081,
        "Argument of Periapsis(deg)": 0.015337453098494424,
        "Eccentricity": 0.0,
        "Inclination(deg)": 53.0,
        "Latitude(deg)": -51.1645209570692,
        "Longitude(deg)": 131.75050950951263,
        "Mean Anomaly(deg)": -103.32852704350452,
        "RAAN(deg)": 344.97717411659124,
        "Satellite Name": "Starlink Shell 1 1532",
        "Satellite Number": 1532,
        "Semi-Major Axis(m)": 6931778.249405717,
        "Time(s)": 440
    },
    {
        "Altitude(m)": 571143.7970873566,
        "Argument of Periapsis(deg)": 0.01568603157800566,
        "Eccentricity": 0.0,
        "Inclination(deg)": 53.0,
        "Latitude(deg)": -51.342943647914986,
        "Longitude(deg)": 132.66331884736647,
        "Mean Anomaly(deg)": -102.70169583994777,
        "RAAN(deg)": 344.9766553465138,
        "Satellite Name": "Starlink Shell 1 1532",
        "Satellite Number": 1532,
        "Semi-Major Axis(m)": 6931778.249405717,
        "Time(s)": 450
    },
    {
        "Altitude(m)": 571210.6343179923,
        "Argument of Periapsis(deg)": 0.0160346100575169,
        "Eccentricity": 0.0,
        "Inclination(deg)": 53.0,
        "Latitude(deg)": -51.51353313603314,
        "Longitude(deg)": 133.5833881460921,
        "Mean Anomaly(deg)": -102.07486463639108,
        "RAAN(deg)": 344.97613657643626,
        "Satellite Name": "Starlink Shell 1 1532",
        "Satellite Number": 1532,
        "Semi-Major Axis(m)": 6931778.249405717,
        "Time(s)": 460
    },
    {
        "Altitude(m)": 571274.2437387826,
        "Argument of Periapsis(deg)": 0.016383188537028134,
        "Eccentricity": 0.0,
        "Inclination(deg)": 53.0,
        "Latitude(deg)": -51.67618379603601,
        "Longitude(deg)": 134.51048438125417,
        "Mean Anomaly(deg)": -101.44803343283439,
        "RAAN(deg)": 344.9756178063588,
        "Satellite Name": "Starlink Shell 1 1532",
        "Satellite Number": 1532,
        "Semi-Major Axis(m)": 6931778.249405717,
        "Time(s)": 470
    },
    {
        "Altitude(m)": 571334.5999858632,
        "Argument of Periapsis(deg)": 0.01673176701653937,
        "Eccentricity": 0.0,
        "Inclination(deg)": 53.0,
        "Latitude(deg)": -51.830793174563375,
        "Longitude(deg)": 135.4443579024167,
        "Mean Anomaly(deg)": -100.82120222927759,
        "RAAN(deg)": 344.97509903628134,
        "Satellite Name": "Starlink Shell 1 1532",
        "Satellite Number": 1532,
        "Semi-Major Axis(m)": 6931778.249405717,
        "Time(s)": 480
    },
    {
        "Altitude(m)": 571391.6789863103,
        "Argument of Periapsis(deg)": 0.017080345496050607,
        "Eccentricity": 0.0,
        "Inclination(deg)": 53.0,
        "Latitude(deg)": -51.9772622717409,
        "Longitude(deg)": 136.38474308973454,
        "Mean Anomaly(deg)": -100.1943710257209,
        "RAAN(deg)": 344.9745802662039,
        "Satellite Name": "Starlink Shell 1 1532",
        "Satellite Number": 1532,
        "Semi-Major Axis(m)": 6931778.249405717,
        "Time(s)": 490
    },
    {
        "Altitude(m)": 571445.4579686043,
        "Argument of Periapsis(deg)": 0.017428923975561842,
        "Eccentricity": 0.0,
        "Inclination(deg)": 53.0,
        "Latitude(deg)": -52.11549582147582,
        "Longitude(deg)": 137.33135909088801,
        "Mean Anomaly(deg)": -99.56753982216419,
        "RAAN(deg)": 344.9740614961264,
        "Satellite Name": "Starlink Shell 1 1532",
        "Satellite Number": 1532,
        "Semi-Major Axis(m)": 6931778.249405717,
        "Time(s)": 500
    },
    {
        "Altitude(m)": 571495.9154724869,
        "Argument of Periapsis(deg)": 0.01777750245507308,
        "Eccentricity": 0.0,
        "Inclination(deg)": 53.0,
        "Latitude(deg)": -52.24540256896455,
        "Longitude(deg)": 138.2839091278594,
        "Mean Anomaly(deg)": -98.9407086186075,
        "RAAN(deg)": 344.9735427260489,
        "Satellite Name": "Starlink Shell 1 1532",
        "Satellite Number": 1532,
        "Semi-Major Axis(m)": 6931778.249405717,
        "Time(s)": 510
    },
    {
        "Altitude(m)": 571543.0313582636,
        "Argument of Periapsis(deg)": 0.018126080934584315,
        "Eccentricity": 0.0,
        "Inclination(deg)": 53.0,
        "Latitude(deg)": -52.36689554373953,
        "Longitude(deg)": 139.2420814010684,
        "Mean Anomaly(deg)": -98.31387741505075,
        "RAAN(deg)": 344.9730239559714,
        "Satellite Name": "Starlink Shell 1 1532",
        "Satellite Number": 1532,
        "Semi-Major Axis(m)": 6931778.249405717,
        "Time(s)": 520
    },
    {
        "Altitude(m)": 571586.7868155258,
        "Argument of Periapsis(deg)": 0.018474659414095554,
        "Eccentricity": 0.0,
        "Inclination(deg)": 53.0,
        "Latitude(deg)": -52.47989232645823,
        "Longitude(deg)": 140.20555007839968,
        "Mean Anomaly(deg)": -97.6870462114941,
        "RAAN(deg)": 344.97250518589397,
        "Satellite Name": "Starlink Shell 1 1532",
        "Satellite Number": 1532,
        "Semi-Major Axis(m)": 6931778.249405717,
        "Time(s)": 530
    },
    {
        "Altitude(m)": 571627.1643713077,
        "Argument of Periapsis(deg)": 0.018823237893606792,
        "Eccentricity": 0.0,
        "Inclination(deg)": 53.0,
        "Latitude(deg)": -52.58431530783401,
        "Longitude(deg)": 141.17397485777002,
        "Mean Anomaly(deg)": -97.06021500793742,
        "RAAN(deg)": 344.9719864158165,
        "Satellite Name": "Starlink Shell 1 1532",
        "Satellite Number": 1532,
        "Semi-Major Axis(m)": 6931778.249405717,
        "Time(s)": 540
    },
    {
        "Altitude(m)": 571664.1478976571,
        "Argument of Periapsis(deg)": 0.019171816373118027,
        "Eccentricity": 0.0,
        "Inclination(deg)": 53.0,
        "Latitude(deg)": -52.68009193770946,
        "Longitude(deg)": 142.14700212634915,
        "Mean Anomaly(deg)": -96.43338380438057,
        "RAAN(deg)": 344.971467645739,
        "Satellite Name": "Starlink Shell 1 1532",
        "Satellite Number": 1532,
        "Semi-Major Axis(m)": 6931778.249405717,
        "Time(s)": 550
    },
    {
        "Altitude(m)": 571697.7226186044,
        "Argument of Periapsis(deg)": 0.019520394852629266,
        "Eccentricity": 0.0,
        "Inclination(deg)": 53.0,
        "Latitude(deg)": -52.76715496268562,
        "Longitude(deg)": 143.12426620344118,
        "Mean Anomaly(deg)": -95.80655260082392,
        "RAAN(deg)": 344.9709488756616,
        "Satellite Name": "Starlink Shell 1 1532",
        "Satellite Number": 1532,
        "Semi-Major Axis(m)": 6931778.249405717,
        "Time(s)": 560
    }
]